{
    "links": {
        "self": "http://www.neowsapp.com/rest/v1/neo/3568321?api_key=iIulBulltgU6a56xZRHN4H3l9WmuAYTsLGpBGhQ2"
    },
    "id": "3568321",
    "neo_reference_id": "3568321",
    "name": "(2011 MX)",
    "designation": "2011 MX",
    "nasa_jpl_url": "http://ssd.jpl.nasa.gov/sbdb.cgi?sstr=3568321",
    "absolute_magnitude_h": 26.9,
    "estimated_diameter": {
        "kilometers": {
            "estimated_diameter_min": 0.0110803882,
            "estimated_diameter_max": 0.0247765013
        },
        "meters": {
            "estimated_diameter_min": 11.0803882126,
            "estimated_diameter_max": 24.7765012606
        },
        "miles": {
            "estimated_diameter_min": 0.0068850319,
            "estimated_diameter_max": 0.0153953994
        },
        "feet": {
            "estimated_diameter_min": 36.3529808636,
            "estimated_diameter_max": 81.2877363957
        }
    },
    "is_potentially_hazardous_asteroid": false,
    "close_approach_data": [
        {
            "close_approach_date": "2004-02-29",
            "close_approach_date_full": "2004-Feb-29 12:21",
            "epoch_date_close_approach": 1078057260000,
            "relative_velocity": {
                "kilometers_per_second": "11.5508562452",
                "kilometers_per_hour": "41583.0824826692",
                "miles_per_hour": "25838.1103348563"
            },
            "miss_distance": {
                "astronomical": "0.0904082971",
                "lunar": "35.1688275719",
                "kilometers": "13524888.676487177",
                "miles": "8403976.1260179626"
            },
            "orbiting_body": "Mars"
        },
        {
            "close_approach_date": "2006-02-04",
            "close_approach_date_full": "2006-Feb-04 07:53",
            "epoch_date_close_approach": 1139039580000,
            "relative_velocity": {
                "kilometers_per_second": "11.0417697824",
                "kilometers_per_hour": "39750.3712165824",
                "miles_per_hour": "24699.3348262148"
            },
            "miss_distance": {
                "astronomical": "0.1882468094",
                "lunar": "73.2280088566",
                "kilometers": "28161321.720535978",
                "miles": "17498633.8947053764"
            },
            "orbiting_body": "Earth"
        },
        {
            "close_approach_date": "2011-06-20",
            "close_approach_date_full": "2011-Jun-20 04:49",
            "epoch_date_close_approach": 1308545340000,
            "relative_velocity": {
                "kilometers_per_second": "12.3728216671",
                "kilometers_per_hour": "44542.15800156",
                "miles_per_hour": "27676.764787136"
            },
            "miss_distance": {
                "astronomical": "0.0064285684",
                "lunar": "2.5007131076",
                "kilometers": "961700.139789308",
                "miles": "597572.7570481304"
            },
            "orbiting_body": "Earth"
        },
        {
            "close_approach_date": "2011-06-20",
            "close_approach_date_full": "2011-Jun-20 08:43",
            "epoch_date_close_approach": 1308559380000,
            "relative_velocity": {
                "kilometers_per_second": "12.8971805166",
                "kilometers_per_hour": "46429.849859616",
                "miles_per_hour": "28849.7030974931"
            },
            "miss_distance": {
                "astronomical": "0.0082303936",
                "lunar": "3.2016231104",
                "kilometers": "1231249.351821632",
                "miles": "765062.8707852416"
            },
            "orbiting_body": "Moon"
        }
    ],
    "orbital_data": {
        "orbit_id": "6",
        "orbit_determination_date": "2017-04-06 08:53:14",
        "first_observation_date": "2011-06-23",
        "last_observation_date": "2011-06-27",
        "data_arc_in_days": 4,
        "observations_used": 23,
        "orbit_uncertainty": "8",
        "minimum_orbit_intersection": ".00162077",
        "jupiter_tisserand_invariant": "4.571",
        "epoch_osculation": "2455736.5",
        "eccentricity": ".3980161102071965",
        "semi_major_axis": "1.431298976981416",
        "inclination": "13.47266481444024",
        "ascending_node_longitude": "268.1938906916406",
        "orbital_period": "625.4519749051389",
        "perihelion_distance": ".861618925619733",
        "perihelion_argument": "297.2835099218354",
        "aphelion_distance": "2.000979028343098",
        "perihelion_time": "2455684.432886577778",
        "mean_anomaly": "29.96898496458152",
        "mean_motion": ".5755837609348032",
        "equinox": "J2000",
        "orbit_class": {
            "orbit_class_type": "APO",
            "orbit_class_description": "Near-Earth asteroid orbits which cross the Earth’s orbit similar to that of 1862 Apollo",
            "orbit_class_range": "a (semi-major axis) > 1.0 AU; q (perihelion) < 1.017 AU"
        }
    },
    "is_sentry_object": false
}